{
    "links": {
        "self": "http://www.neowsapp.com/rest/v1/neo/3653685?api_key=iIulBulltgU6a56xZRHN4H3l9WmuAYTsLGpBGhQ2"
    },
    "id": "3653685",
    "neo_reference_id": "3653685",
    "name": "(2013 VH13)",
    "designation": "2013 VH13",
    "nasa_jpl_url": "http://ssd.jpl.nasa.gov/sbdb.cgi?sstr=3653685",
    "absolute_magnitude_h": 25.1,
    "estimated_diameter": {
        "kilometers": {
            "estimated_diameter_min": 0.0253837029,
            "estimated_diameter_max": 0.0567596853
        },
        "meters": {
            "estimated_diameter_min": 25.3837029364,
            "estimated_diameter_max": 56.7596852866
        },
        "miles": {
            "estimated_diameter_min": 0.0157726969,
            "estimated_diameter_max": 0.0352688224
        },
        "feet": {
            "estimated_diameter_min": 83.279867942,
            "estimated_diameter_max": 186.2194458756
        }
    },
    "is_potentially_hazardous_asteroid": false,
    "close_approach_data": [
        {
            "close_approach_date": "2013-10-25",
            "close_approach_date_full": "2013-Oct-25 12:02",
            "epoch_date_close_approach": 1382702520000,
            "relative_velocity": {
                "kilometers_per_second": "11.5130507195",
                "kilometers_per_hour": "41446.98259034",
                "miles_per_hour": "25753.5431545366"
            },
            "miss_distance": {
                "astronomical": "0.0366778285",
                "lunar": "14.2676752865",
                "kilometers": "5486925.019825295",
                "miles": "3409417.110547271"
            },
            "orbiting_body": "Earth"
        }
    ],
    "orbital_data": {
        "orbit_id": "4",
        "orbit_determination_date": "2017-04-06 08:43:41",
        "first_observation_date": "2013-11-10",
        "last_observation_date": "2013-11-12",
        "data_arc_in_days": 2,
        "observations_used": 21,
        "orbit_uncertainty": "9",
        "minimum_orbit_intersection": ".0137843",
        "jupiter_tisserand_invariant": "3.317",
        "epoch_osculation": "2456608.5",
        "eccentricity": ".593365390870687",
        "semi_major_axis": "2.318914066611573",
        "inclination": "3.507273527660228",
        "ascending_node_longitude": "13.45305994745757",
        "orbital_period": "1289.809018964905",
        "perihelion_distance": ".9429507150810628",
        "perihelion_argument": "342.613040558484",
        "aphelion_distance": "3.694877418142083",
        "perihelion_time": "2456564.528641477257",
        "mean_anomaly": "12.27289376600196",
        "mean_motion": ".2791110890889154",
        "equinox": "J2000",
        "orbit_class": {
            "orbit_class_type": "APO",
            "orbit_class_description": "Near-Earth asteroid orbits which cross the Earth’s orbit similar to that of 1862 Apollo",
            "orbit_class_range": "a (semi-major axis) > 1.0 AU; q (perihelion) < 1.017 AU"
        }
    },
    "is_sentry_object": false
}